{"type": "FeatureCollection", "features": [ {"type": "Feature", "properties": {"norad_id": 29795, "name": "FENGYUN 1C DEB", "group": "fengyun-1c-debris", "lat": 67.46250354294608, "lon": 107.23450364424617, "alt_km": 991.4309731003214, "timestamp": "2025-12-26T12:57:39.544279+00:00", "meta": {"OBJECT_NAME": "FENGYUN 1C DEB", "OBJECT_ID": "1999-025CM", "EPOCH": "2025-12-24T19:59:46.682016", "MEAN_MOTION": 13.92915318, "ECCENTRICITY": 0.0111225, "INCLINATION": 98.8709, "RA_OF_ASC_NODE": 127.7057, "ARG_OF_PERICENTER": 242.788, "MEAN_ANOMALY": 272.3224, "EPHEMERIS_TYPE": 0, "CLASSIFICATION_TYPE": "U", "NORAD_CAT_ID": 29795, "ELEMENT_SET_NO": 999, "REV_AT_EPOCH": 96233, "BSTAR": 0.00022846706, "MEAN_MOTION_DOT": 2.69e-06, "MEAN_MOTION_DDOT": 0}, "tle": {"line1": "1 29795U 99025CM  25358.83317919  .00000269  00000+0  22847-3 0  9993", "line2": "2 29795  98.8709 127.7057 0111225 242.7880 272.3224 13.92915318962334"}}, "geometry": {"type": "Point", "coordinates": [107.23450364424617, 67.46250354294608]}}, {"type": "Feature", "properties": {"norad_id": 29796, "name": "FENGYUN 1C DEB", "group": "fengyun-1c-debris", "lat": -60.5960936653894, "lon": 68.33549738167537, "alt_km": 845.007558853712, "timestamp": "2025-12-26T12:57:39.544289+00:00", "meta": {"OBJECT_NAME": "FENGYUN 1C DEB", "OBJECT_ID": "1999-025CN", "EPOCH": "2025-12-26T03:10:39.410112", "MEAN_MOTION": 14.12367293, "ECCENTRICITY": 0.00525195, "INCLINATION": 98.8635, "RA_OF_ASC_NODE": 51.858, "ARG_OF_PERICENTER": 229.7155, "MEAN_ANOMALY": 156.4271, "EPHEMERIS_TYPE": 0, "CLASSIFICATION_TYPE": "U", "NORAD_CAT_ID": 29796, "ELEMENT_SET_NO": 999, "REV_AT_EPOCH": 97250, "BSTAR": 0.00060888664, "MEAN_MOTION_DOT": 1.092e-05, "MEAN_MOTION_DDOT": 0}, "tle": {"line1": "1 29796U 99025CN  25360.13240058  .00001092  00000+0  60889-3 0  9992", "line2": "2 29796  98.8635  51.8580 0052519 229.7155 156.4271 14.12367293972501"}}, "geometry": {"type": "Point", "coordinates": [68.33549738167537, -60.5960936653894]}}, {"type": "Feature", "properties": {"norad_id": 29798, "name": "FENGYUN 1C DEB", "group": "fengyun-1c-debris", "lat": 26.709757541989667, "lon": 59.93008999705656, "alt_km": 965.9988844717091, "timestamp": "2025-12-26T12:57:39.544299+00:00", "meta": {"OBJECT_NAME": "FENGYUN 1C DEB", "OBJECT_ID": "1999-025CQ", "EPOCH": "2025-12-26T04:34:04.759968", "MEAN_MOTION": 13.99628546, "ECCENTRICITY": 0.01121481, "INCLINATION": 99.2953, "RA_OF_ASC_NODE": 64.3019, "ARG_OF_PERICENTER": 235.8542, "MEAN_ANOMALY": 189.6309, "EPHEMERIS_TYPE": 0, "CLASSIFICATION_TYPE": "U", "NORAD_CAT_ID": 29798, "ELEMENT_SET_NO": 999, "REV_AT_EPOCH": 96113, "BSTAR": 0.0015759837, "MEAN_MOTION_DOT": 2.385e-05, "MEAN_MOTION_DDOT": 0}, "tle": {"line1": "1 29798U 99025CQ  25360.19033287  .00002385  00000+0  15760-2 0  9997", "line2": "2 29798  99.2953  64.3019 0112148 235.8542 189.6309 13.99628546961132"}}, "geometry": {"type": "Point", "coordinates": [59.93008999705656, 26.709757541989667]}}, {"type": "Feature", "properties": {"norad_id": 29800, "name": "FENGYUN 1C DEB", "group": "fengyun-1c-debris", "lat": 36.96522358222086, "lon": -152.86216513911197, "alt_km": 827.8719042276298, "timestamp": "2025-12-26T12:57:39.544309+00:00", "meta": {"OBJECT_NAME": "FENGYUN 1C DEB", "OBJECT_ID": "1999-025CS", "EPOCH": "2025-12-25T12:58:14.687328", "MEAN_MOTION": 13.98631422, "ECCENTRICITY": 0.0133875, "INCLINATION": 98.291, "RA_OF_ASC_NODE": 19.933, "ARG_OF_PERICENTER": 191.628, "MEAN_ANOMALY": 321.744, "EPHEMERIS_TYPE": 0, "CLASSIFICATION_TYPE": "U", "NORAD_CAT_ID": 29800, "ELEMENT_SET_NO": 999, "REV_AT_EPOCH": 95755, "BSTAR": 0.0014898, "MEAN_MOTION_DOT": 2.271e-05, "MEAN_MOTION_DDOT": 0}, "tle": {"line1": "1 29800U 99025CS  25359.54044777  .00002271  00000+0  14898-2 0  9999", "line2": "2 29800  98.2910  19.9330 0133875 191.6280 321.7440 13.98631422957550"}}, "geometry": {"type": "Point", "coordinates": [-152.86216513911197, 36.96522358222086]}}, {"type": "Feature", "properties": {"norad_id": 29801, "name": "FENGYUN 1C DEB", "group": "fengyun-1c-debris", "lat": 60.19734387131166, "lon": 97.52546653898138, "alt_km": 787.894673597084, "timestamp": "2025-12-26T12:57:39.544319+00:00", "meta": {"OBJECT_NAME": "FENGYUN 1C DEB", "OBJECT_ID": "1999-025CT", "EPOCH": "2025-12-26T06:15:37.650816", "MEAN_MOTION": 14.35911598, "ECCENTRICITY": 0.01029588, "INCLINATION": 98.7951, "RA_OF_ASC_NODE": 261.5584, "ARG_OF_PERICENTER": 227.0879, "MEAN_ANOMALY": 250.1941, "EPHEMERIS_TYPE": 0, "CLASSIFICATION_TYPE": "U", "NORAD_CAT_ID": 29801, "ELEMENT_SET_NO": 999, "REV_AT_EPOCH": 99135, "BSTAR": 0.00017580878, "MEAN_MOTION_DOT": 4.93e-06, "MEAN_MOTION_DDOT": 0}, "tle": {"line1": "1 29801U 99025CT  25360.26085244  .00000493  00000+0  17581-3 0  9992", "line2": "2 29801  98.7951 261.5584 0102958 227.0879 250.1941 14.35911598991357"}}, "geometry": {"type": "Point", "coordinates": [97.52546653898138, 60.19734387131166]}}, {"type": "Feature", "properties": {"norad_id": 29802, "name": "FENGYUN 1C DEB", "group": "fengyun-1c-debris", "lat": -18.760503394130975, "lon": 113.20792014836451, "alt_km": 671.1061940610216, "timestamp": "2025-12-26T12:57:39.544329+00:00", "meta": {"OBJECT_NAME": "FENGYUN 1C DEB", "OBJECT_ID": "1999-025CU", "EPOCH": "2025-12-26T06:34:51.436416", "MEAN_MOTION": 14.62667378, "ECCENTRICITY": 0.00374676, "INCLINATION": 98.6189, "RA_OF_ASC_NODE": 109.9775, "ARG_OF_PERICENTER": 296.1595, "MEAN_ANOMALY": 85.7073, "EPHEMERIS_TYPE": 0, "CLASSIFICATION_TYPE": "U", "NORAD_CAT_ID": 29802, "ELEMENT_SET_NO": 999, "REV_AT_EPOCH": 98671, "BSTAR": 0.0028561806, "MEAN_MOTION_DOT": 0.00014654, "MEAN_MOTION_DDOT": 0}, "tle": {"line1": "1 29802U 99025CU  25360.27420644  .00014654  00000+0  28562-2 0  9995", "line2": "2 29802  98.6189 109.9775 0037467 296.1595  85.7073 14.62667378986717"}}, "geometry": {"type": "Point", "coordinates": [113.20792014836451, -18.760503394130975]}}, {"type": "Feature", "properties": {"norad_id": 29804, "name": "FENGYUN 1C DEB", "group": "fengyun-1c-debris", "lat": -53.07547829911112, "lon": 20.231911922635557, "alt_km": 834.1494933563008, "timestamp": "2025-12-26T12:57:39.544339+00:00", "meta": {"OBJECT_NAME": "FENGYUN 1C DEB", "OBJECT_ID": "1999-025CW", "EPOCH": "2025-12-26T06:41:23.081568", "MEAN_MOTION": 14.04323412, "ECCENTRICITY": 0.00970409, "INCLINATION": 98.8048, "RA_OF_ASC_NODE": 8.0762, "ARG_OF_PERICENTER": 263.594, "MEAN_ANOMALY": 161.4316, "EPHEMERIS_TYPE": 0, "CLASSIFICATION_TYPE": "U", "NORAD_CAT_ID": 29804, "ELEMENT_SET_NO": 999, "REV_AT_EPOCH": 97084, "BSTAR": -1.5100938e-05, "MEAN_MOTION_DOT": -6.9e-07, "MEAN_MOTION_DDOT": 0}, "tle": {"line1": "1 29804U 99025CW  25360.27873937 -.00000069  00000+0 -15101-4 0  9998", "line2": "2 29804  98.8048   8.0762 0097040 263.5940 161.4316 14.04323412970848"}}, "geometry": {"type": "Point", "coordinates": [20.231911922635557, -53.07547829911112]}}, {"type": "Feature", "properties": {"norad_id": 29805, "name": "FENGYUN 1C DEB", "group": "fengyun-1c-debris", "lat": -22.158199335175482, "lon": 55.525079150192425, "alt_km": 1106.4278538051813, "timestamp": "2025-12-26T12:57:39.544349+00:00", "meta": {"OBJECT_NAME": "FENGYUN 1C DEB", "OBJECT_ID": "1999-025CX", "EPOCH": "2025-12-26T02:34:39.703008", "MEAN_MOTION": 13.72661795, "ECCENTRICITY": 0.01884835, "INCLINATION": 99.4532, "RA_OF_ASC_NODE": 51.2077, "ARG_OF_PERICENTER": 194.946, "MEAN_ANOMALY": 164.6071, "EPHEMERIS_TYPE": 0, "CLASSIFICATION_TYPE": "U", "NORAD_CAT_ID": 29805, "ELEMENT_SET_NO": 999, "REV_AT_EPOCH": 94886, "BSTAR": 0.00014704553, "MEAN_MOTION_DOT": 1.09e-06, "MEAN_MOTION_DDOT": 0}, "tle": {"line1": "1 29805U 99025CX  25360.10740397  .00000109  00000+0  14705-3 0  9995", "line2": "2 29805  99.4532  51.2077 0188483 194.9460 164.6071 13.72661795948862"}}, "geometry": {"type": "Point", "coordinates": [55.525079150192425, -22.158199335175482]}}, {"type": "Feature", "properties": {"norad_id": 29806, "name": "FENGYUN 1C DEB", "group": "fengyun-1c-debris", "lat": -24.305945943152647, "lon": 19.908518909151674, "alt_km": 869.0638105654762, "timestamp": "2025-12-26T12:57:39.544360+00:00", "meta": {"OBJECT_NAME": "FENGYUN 1C DEB", "OBJECT_ID": "1999-025CY", "EPOCH": "2025-12-25T23:44:59.531424", "MEAN_MOTION": 14.1203138, "ECCENTRICITY": 0.002802, "INCLINATION": 98.7123, "RA_OF_ASC_NODE": 15.4026, "ARG_OF_PERICENTER": 213.4796, "MEAN_ANOMALY": 205.1423, "EPHEMERIS_TYPE": 0, "CLASSIFICATION_TYPE": "U", "NORAD_CAT_ID": 29806, "ELEMENT_SET_NO": 999, "REV_AT_EPOCH": 97326, "BSTAR": 0.00051177, "MEAN_MOTION_DOT": 8.98e-06, "MEAN_MOTION_DDOT": 0}, "tle": {"line1": "1 29806U 99025CY  25359.98957791  .00000898  00000+0  51177-3 0  9997", "line2": "2 29806  98.7123  15.4026 0028020 213.4796 205.1423 14.12031380973266"}}, "geometry": {"type": "Point", "coordinates": [19.908518909151674, -24.305945943152647]}}, {"type": "Feature", "properties": {"norad_id": 29807, "name": "FENGYUN 1C DEB", "group": "fengyun-1c-debris", "lat": -50.81885019290865, "lon": 173.86214134140397, "alt_km": 842.7207435407936, "timestamp": "2025-12-26T12:57:39.544369+00:00", "meta": {"OBJECT_NAME": "FENGYUN 1C DEB", "OBJECT_ID": "1999-025CZ", "EPOCH": "2025-12-26T06:44:35.661984", "MEAN_MOTION": 14.08670282, "ECCENTRICITY": 0.00790623, "INCLINATION": 98.7549, "RA_OF_ASC_NODE": 4.5092, "ARG_OF_PERICENTER": 293.3437, "MEAN_ANOMALY": 65.9429, "EPHEMERIS_TYPE": 0, "CLASSIFICATION_TYPE": "U", "NORAD_CAT_ID": 29807, "ELEMENT_SET_NO": 999, "REV_AT_EPOCH": 97285, "BSTAR": 0.0002365976, "MEAN_MOTION_DOT": 3.76e-06, "MEAN_MOTION_DDOT": 0}, "tle": {"line1": "1 29807U 99025CZ  25360.28096831  .00000376  00000+0  23660-3 0  9999", "line2": "2 29807  98.7549   4.5092 0079062 293.3437  65.9429 14.08670282972859"}}, "geometry": {"type": "Point", "coordinates": [173.86214134140397, -50.81885019290865]}}]}